ONEWEB-0435             
1 51632U 22012L   24268.63537238  .00000239  00000+0  64766-3 0  9998
2 51632  87.8975 161.7744 0001763  89.8660 270.2669 13.10371113126739
ONEWEB-0436             
1 51633U 22012M   24268.86613586 -.00000083  00000+0 -24589-3 0  9993
2 51633  87.9119 131.4125 0001755  86.2479 273.8853 13.17667151131960
ONEWEB-0438             
1 51634U 22012N   24268.46606502  .00000743  00000+0  20912-2 0  9996
2 51634  87.8979 161.8082 0001635  69.0168 291.1134 13.10374277126746
ONEWEB-0439             
1 51635U 22012P   24268.46938279  .00000672  00000+0  18878-2 0  9995
2 51635  87.8979 161.7933 0001724  76.5674 283.5645 13.10374138126721
ONEWEB-0442             
1 51636U 22012Q   24268.85864248 -.00000016  00000+0 -73183-4 0  9999
2 51636  87.9120 131.4528 0001729  54.5202 305.6091 13.17712976131958
ONEWEB-0443             
1 51637U 22012R   24268.34618462  .00000100  00000+0  22467-3 0  9999
2 51637  87.9124 131.5639 0001342  79.8990 280.2293 13.17591869130645
ONEWEB-0444             
1 51638U 22012S   24268.45942071  .00000602  00000+0  16882-2 0  9998
2 51638  87.8977 161.8120 0001645  79.7433 280.3880 13.10377221126734
ONEWEB-0445             
1 51639U 22012T   24268.40464290  .00000333  00000+0  91751-3 0  9996
2 51639  87.8967 161.7903 0001888  68.1519 291.9809 13.10370384126730
